{
 "type": "FeatureCollection",
 "name": "corby_pride_in_place_khle",
 "metadata": {
  "boundaries": "ONS Open Geography Portal: LSOA Dec 2021 BGC V5 and MSOA Dec 2021 BGC V3 (generalised, clipped), EPSG:4326. Contains OS data © Crown copyright and database right 2021. Source: Office for National Statistics licensed under the Open Government Licence v3.0.",
  "boundary": "Working Pride in Place boundary (from 9 Oct 2026) = published MSOA E02005617 'North Northamptonshire 007' (Kingswood and Hazel Leys) + the Exeter estate LSOAs E01026951 (005C) and E01026950 (005B, incl. Burghley Drive NN18 8DX). The two Exeter LSOAs sit in MSOA E02005616, outside the published MSOA.",
  "exeter_data": "Exeter LSOAs are not in the Aug data pack: IMD 2025 for 005C from the pack, for 005B from the MHCLG Local Deprivation Explorer; Census 2021 for both from Nomis using the pack's method.",
  "claimant": "Claimant rate = ONS published claimants as a proportion of residents aged 16-64, July 2026 (Nomis NM_162_1), for all nine LSOAs. Whole-area rate is approximate.",
  "area_totals": {
   "pip": {
    "population": 14178,
    "households": 5519,
    "hh_deprived_3plus": 8.3,
    "no_quals": 31.6,
    "level4_quals": 16.3,
    "social_rented": 30.2,
    "private_rented": 24.2,
    "no_car": 31.6,
    "disabled": 19.9,
    "language_not_english": 22.1,
    "lone_parent": 11.1,
    "claimant_count": 595,
    "claimant_rate": 6.2
   },
   "north_northants": {
    "population": 359525,
    "households": 148916,
    "hh_deprived_3plus": 3.5,
    "no_quals": 19.9,
    "level4_quals": 26.7,
    "social_rented": 15.2,
    "private_rented": 18.4,
    "no_car": 16.0,
    "disabled": 17.3,
    "language_not_english": 9.4,
    "lone_parent": 7.0,
    "claimant_rate": 3.3
   }
  },
  "data": "Pride in Place Corby - Deprivation Data Pack.xlsx (compiled Aug 2026): IMD 2025 ranks of 33,755 (1 = most deprived); Census 2021 by LSOA; claimant count Jul 2026."
 },
 "features": [
  {
   "type": "Feature",
   "properties": {
    "layer": "lsoa",
    "code": "E01026951",
    "name": "North Northamptonshire 005C",
    "short": "005C",
    "label": "005C · Exeter (south)",
    "exeter": true,
    "msoa": "E02005616",
    "area_km2": 0.249,
    "label_lon": -0.699523,
    "label_lat": 52.481719,
    "imd_rank": 5343,
    "la_rank": 18,
    "income": 6553,
    "employment": 5984,
    "education": 255,
    "health": 6449,
    "crime": 8720,
    "barriers": 28929,
    "living_env": 29961,
    "idaci": 6311,
    "idaopi": 10877,
    "imd_pct_most_deprived": 15.8,
    "imd_decile": 2,
    "population": 1355,
    "households": 515,
    "hh_deprived_3plus": 7.8,
    "no_quals": 32.4,
    "level4_quals": 14.9,
    "social_rented": 32.1,
    "private_rented": 20.0,
    "no_car": 31.5,
    "disabled": 19.2,
    "language_not_english": 21.8,
    "lone_parent": 12.4,
    "claimant_count": 55,
    "claimant_rate": 5.9
   },
   "geometry": {
    "type": "Polygon",
    "coordinates": [
     [
      [
       -0.696567,
       52.481601
      ],
      [
       -0.695472,
       52.480749
      ],
      [
       -0.694344,
       52.481028
      ],
      [
       -0.693397,
       52.480548
      ],
      [
       -0.692624,
       52.480765
      ],
      [
       -0.691466,
       52.480455
      ],
      [
       -0.691968,
       52.479063
      ],
      [
       -0.69408,
       52.478908
      ],
      [
       -0.698408,
       52.479243
      ],
      [
       -0.699267,
       52.479378
      ],
      [
       -0.704,
       52.480677
      ],
      [
       -0.702636,
       52.481837
      ],
      [
       -0.701375,
       52.482538
      ],
      [
       -0.699373,
       52.483611
      ],
      [
       -0.698582,
       52.48415
      ],
      [
       -0.698417,
       52.484295
      ],
      [
       -0.697587,
       52.484197
      ],
      [
       -0.696289,
       52.482336
      ],
      [
       -0.695758,
       52.482267
      ],
      [
       -0.695594,
       52.481988
      ],
      [
       -0.696567,
       52.481601
      ]
     ]
    ]
   }
  },
  {
   "type": "Feature",
   "properties": {
    "layer": "lsoa",
    "code": "E01026959",
    "name": "North Northamptonshire 007A",
    "short": "007A",
    "label": "007A",
    "exeter": false,
    "msoa": "E02005617",
    "area_km2": 0.238,
    "label_lon": -0.724326,
    "label_lat": 52.483663,
    "imd_rank": 8127,
    "la_rank": 37,
    "income": 8319,
    "employment": 8687,
    "education": 2799,
    "health": 6381,
    "crime": 7135,
    "barriers": 28658,
    "living_env": 26099,
    "idaci": 9266,
    "idaopi": 13874,
    "imd_pct_most_deprived": 24.1,
    "imd_decile": 3,
    "population": 1534,
    "hh_deprived_3plus": 5.9,
    "no_quals": 29.6,
    "level4_quals": 16.2,
    "social_rented": 21.3,
    "private_rented": 24.8,
    "no_car": 28.7,
    "disabled": 18.6,
    "language_not_english": 15.5,
    "lone_parent": 8.7,
    "claimant_rate": 5.9,
    "claimant_count": 60
   },
   "geometry": {
    "type": "Polygon",
    "coordinates": [
     [
      [
       -0.720992,
       52.486942
      ],
      [
       -0.72051,
       52.486321
      ],
      [
       -0.719584,
       52.486924
      ],
      [
       -0.719036,
       52.486572
      ],
      [
       -0.718341,
       52.486883
      ],
      [
       -0.717918,
       52.486698
      ],
      [
       -0.718297,
       52.485906
      ],
      [
       -0.71906,
       52.485933
      ],
      [
       -0.719295,
       52.48563
      ],
      [
       -0.718846,
       52.485477
      ],
      [
       -0.72012,
       52.485132
      ],
      [
       -0.721707,
       52.484403
      ],
      [
       -0.721778,
       52.484023
      ],
      [
       -0.721297,
       52.483945
      ],
      [
       -0.721558,
       52.483113
      ],
      [
       -0.722218,
       52.483033
      ],
      [
       -0.722143,
       52.482747
      ],
      [
       -0.722396,
       52.481993
      ],
      [
       -0.72194,
       52.48196
      ],
      [
       -0.721724,
       52.481104
      ],
      [
       -0.722716,
       52.481065
      ],
      [
       -0.7244,
       52.480842
      ],
      [
       -0.724739,
       52.481499
      ],
      [
       -0.726096,
       52.481622
      ],
      [
       -0.726846,
       52.482357
      ],
      [
       -0.727008,
       52.482863
      ],
      [
       -0.727179,
       52.483381
      ],
      [
       -0.727641,
       52.484863
      ],
      [
       -0.725974,
       52.485043
      ],
      [
       -0.726183,
       52.486197
      ],
      [
       -0.725374,
       52.486439
      ],
      [
       -0.72361,
       52.486389
      ],
      [
       -0.722768,
       52.486758
      ],
      [
       -0.722218,
       52.486567
      ],
      [
       -0.720992,
       52.486942
      ]
     ]
    ]
   }
  },
  {
   "type": "Feature",
   "properties": {
    "layer": "lsoa",
    "code": "E01026960",
    "name": "North Northamptonshire 007B",
    "short": "007B",
    "label": "007B",
    "exeter": false,
    "msoa": "E02005617",
    "area_km2": 0.25,
    "label_lon": -0.706117,
    "label_lat": 52.48453,
    "imd_rank": 3980,
    "la_rank": 11,
    "income": 5438,
    "employment": 5784,
    "education": 352,
    "health": 4435,
    "crime": 2463,
    "barriers": 30966,
    "living_env": 18711,
    "idaci": 5573,
    "idaopi": 6374,
    "imd_pct_most_deprived": 11.8,
    "imd_decile": 2,
    "population": 1589,
    "hh_deprived_3plus": 9.7,
    "no_quals": 35,
    "level4_quals": 14.7,
    "social_rented": 35.4,
    "private_rented": 28.4,
    "no_car": 40.3,
    "disabled": 19,
    "language_not_english": 29.3,
    "lone_parent": 10.6,
    "claimant_rate": 6.3,
    "claimant_count": 75
   },
   "geometry": {
    "type": "Polygon",
    "coordinates": [
     [
      [
       -0.704939,
       52.486465
      ],
      [
       -0.697897,
       52.484943
      ],
      [
       -0.69801,
       52.484765
      ],
      [
       -0.698417,
       52.484295
      ],
      [
       -0.698582,
       52.48415
      ],
      [
       -0.699373,
       52.483611
      ],
      [
       -0.699818,
       52.483837
      ],
      [
       -0.704752,
       52.48407
      ],
      [
       -0.704928,
       52.484078
      ],
      [
       -0.707939,
       52.484111
      ],
      [
       -0.709395,
       52.48351
      ],
      [
       -0.711759,
       52.483127
      ],
      [
       -0.71298,
       52.482888
      ],
      [
       -0.714688,
       52.482444
      ],
      [
       -0.714812,
       52.483978
      ],
      [
       -0.713655,
       52.484784
      ],
      [
       -0.708238,
       52.486218
      ],
      [
       -0.705178,
       52.486144
      ],
      [
       -0.704939,
       52.486465
      ]
     ]
    ]
   }
  },
  {
   "type": "Feature",
   "properties": {
    "layer": "lsoa",
    "code": "E01026961",
    "name": "North Northamptonshire 007C",
    "short": "007C",
    "label": "007C",
    "exeter": false,
    "msoa": "E02005617",
    "area_km2": 0.396,
    "label_lon": -0.714628,
    "label_lat": 52.485288,
    "imd_rank": 5026,
    "la_rank": 16,
    "income": 6040,
    "employment": 5529,
    "education": 917,
    "health": 4101,
    "crime": 6573,
    "barriers": 28980,
    "living_env": 23406,
    "idaci": 6981,
    "idaopi": 8127,
    "imd_pct_most_deprived": 14.9,
    "imd_decile": 2,
    "population": 1318,
    "hh_deprived_3plus": 7.8,
    "no_quals": 29.2,
    "level4_quals": 14.5,
    "social_rented": 27.3,
    "private_rented": 25.1,
    "no_car": 27.8,
    "disabled": 21.9,
    "language_not_english": 19.3,
    "lone_parent": 13.1,
    "claimant_rate": 6.2,
    "claimant_count": 55
   },
   "geometry": {
    "type": "Polygon",
    "coordinates": [
     [
      [
       -0.704939,
       52.486465
      ],
      [
       -0.705178,
       52.486144
      ],
      [
       -0.708238,
       52.486218
      ],
      [
       -0.713655,
       52.484784
      ],
      [
       -0.714812,
       52.483978
      ],
      [
       -0.714688,
       52.482444
      ],
      [
       -0.716457,
       52.482006
      ],
      [
       -0.718065,
       52.481608
      ],
      [
       -0.71826,
       52.481559
      ],
      [
       -0.721724,
       52.481104
      ],
      [
       -0.72194,
       52.48196
      ],
      [
       -0.722396,
       52.481993
      ],
      [
       -0.722143,
       52.482747
      ],
      [
       -0.722218,
       52.483033
      ],
      [
       -0.721558,
       52.483113
      ],
      [
       -0.721297,
       52.483945
      ],
      [
       -0.721778,
       52.484023
      ],
      [
       -0.721707,
       52.484403
      ],
      [
       -0.72012,
       52.485132
      ],
      [
       -0.718846,
       52.485477
      ],
      [
       -0.717916,
       52.485445
      ],
      [
       -0.717666,
       52.48503
      ],
      [
       -0.717175,
       52.485825
      ],
      [
       -0.716629,
       52.486001
      ],
      [
       -0.716677,
       52.487595
      ],
      [
       -0.716613,
       52.48938
      ],
      [
       -0.713821,
       52.488564
      ],
      [
       -0.704939,
       52.486465
      ]
     ]
    ]
   }
  },
  {
   "type": "Feature",
   "properties": {
    "layer": "lsoa",
    "code": "E01026965",
    "name": "North Northamptonshire 007D",
    "short": "007D",
    "label": "007D",
    "exeter": false,
    "msoa": "E02005617",
    "area_km2": 0.232,
    "label_lon": -0.71655,
    "label_lat": 52.479148,
    "imd_rank": 3196,
    "la_rank": 9,
    "income": 3886,
    "employment": 3551,
    "education": 265,
    "health": 5099,
    "crime": 2081,
    "barriers": 25346,
    "living_env": 30616,
    "idaci": 5381,
    "idaopi": 5603,
    "imd_pct_most_deprived": 9.5,
    "imd_decile": 1,
    "population": 1613,
    "hh_deprived_3plus": 8.3,
    "no_quals": 35,
    "level4_quals": 16.2,
    "social_rented": 32.6,
    "private_rented": 30.4,
    "no_car": 34.5,
    "disabled": 18.8,
    "language_not_english": 28.8,
    "lone_parent": 12.7,
    "claimant_rate": 7.2,
    "claimant_count": 80
   },
   "geometry": {
    "type": "Polygon",
    "coordinates": [
     [
      [
       -0.712341,
       52.478607
      ],
      [
       -0.713479,
       52.478286
      ],
      [
       -0.71399,
       52.477846
      ],
      [
       -0.71464,
       52.477898
      ],
      [
       -0.714347,
       52.477623
      ],
      [
       -0.715591,
       52.477071
      ],
      [
       -0.71715,
       52.47648
      ],
      [
       -0.717383,
       52.476103
      ],
      [
       -0.717613,
       52.476285
      ],
      [
       -0.71797,
       52.476106
      ],
      [
       -0.718388,
       52.476041
      ],
      [
       -0.718586,
       52.476534
      ],
      [
       -0.717671,
       52.476735
      ],
      [
       -0.718376,
       52.478415
      ],
      [
       -0.718619,
       52.478652
      ],
      [
       -0.719301,
       52.478584
      ],
      [
       -0.719644,
       52.477608
      ],
      [
       -0.721024,
       52.477839
      ],
      [
       -0.721677,
       52.478527
      ],
      [
       -0.721475,
       52.478897
      ],
      [
       -0.719481,
       52.479398
      ],
      [
       -0.719627,
       52.479744
      ],
      [
       -0.719289,
       52.480978
      ],
      [
       -0.717722,
       52.481302
      ],
      [
       -0.718065,
       52.481608
      ],
      [
       -0.716457,
       52.482006
      ],
      [
       -0.714688,
       52.482444
      ],
      [
       -0.714136,
       52.482459
      ],
      [
       -0.713412,
       52.480667
      ],
      [
       -0.712341,
       52.478607
      ]
     ]
    ]
   }
  },
  {
   "type": "Feature",
   "properties": {
    "layer": "lsoa",
    "code": "E01026966",
    "name": "North Northamptonshire 007E",
    "short": "007E",
    "label": "007E",
    "exeter": false,
    "msoa": "E02005617",
    "area_km2": 0.714,
    "label_lon": -0.725807,
    "label_lat": 52.476188,
    "imd_rank": 7266,
    "la_rank": 31,
    "income": 8179,
    "employment": 6061,
    "education": 2589,
    "health": 8615,
    "crime": 6042,
    "barriers": 26341,
    "living_env": 22863,
    "idaci": 6572,
    "idaopi": 17299,
    "imd_pct_most_deprived": 21.5,
    "imd_decile": 3,
    "population": 1489,
    "hh_deprived_3plus": 5.9,
    "no_quals": 24.2,
    "level4_quals": 22.9,
    "social_rented": 22.8,
    "private_rented": 13.7,
    "no_car": 23,
    "disabled": 20.5,
    "language_not_english": 11.5,
    "lone_parent": 9.9,
    "claimant_rate": 6.8,
    "claimant_count": 60
   },
   "geometry": {
    "type": "Polygon",
    "coordinates": [
     [
      [
       -0.721024,
       52.477839
      ],
      [
       -0.719644,
       52.477608
      ],
      [
       -0.719301,
       52.478584
      ],
      [
       -0.718619,
       52.478652
      ],
      [
       -0.718376,
       52.478415
      ],
      [
       -0.717671,
       52.476735
      ],
      [
       -0.718586,
       52.476534
      ],
      [
       -0.719463,
       52.475843
      ],
      [
       -0.720527,
       52.475337
      ],
      [
       -0.722181,
       52.475166
      ],
      [
       -0.721921,
       52.473973
      ],
      [
       -0.72246,
       52.473276
      ],
      [
       -0.722215,
       52.472884
      ],
      [
       -0.721578,
       52.472232
      ],
      [
       -0.720308,
       52.472553
      ],
      [
       -0.720246,
       52.47225
      ],
      [
       -0.723193,
       52.470645
      ],
      [
       -0.723439,
       52.470771
      ],
      [
       -0.725734,
       52.471922
      ],
      [
       -0.72767,
       52.472876
      ],
      [
       -0.729491,
       52.473706
      ],
      [
       -0.730212,
       52.474018
      ],
      [
       -0.733053,
       52.475201
      ],
      [
       -0.731234,
       52.47908
      ],
      [
       -0.730596,
       52.479823
      ],
      [
       -0.728816,
       52.479931
      ],
      [
       -0.72532,
       52.480609
      ],
      [
       -0.7244,
       52.480842
      ],
      [
       -0.722716,
       52.481065
      ],
      [
       -0.721724,
       52.481104
      ],
      [
       -0.71826,
       52.481559
      ],
      [
       -0.718065,
       52.481608
      ],
      [
       -0.717722,
       52.481302
      ],
      [
       -0.719289,
       52.480978
      ],
      [
       -0.719627,
       52.479744
      ],
      [
       -0.719481,
       52.479398
      ],
      [
       -0.721475,
       52.478897
      ],
      [
       -0.721677,
       52.478527
      ],
      [
       -0.721024,
       52.477839
      ]
     ]
    ]
   }
  },
  {
   "type": "Feature",
   "properties": {
    "layer": "lsoa",
    "code": "E01026967",
    "name": "North Northamptonshire 007F",
    "short": "007F",
    "label": "007F",
    "exeter": false,
    "msoa": "E02005617",
    "area_km2": 0.375,
    "label_lon": -0.708451,
    "label_lat": 52.481342,
    "imd_rank": 8430,
    "la_rank": 39,
    "income": 9442,
    "employment": 8601,
    "education": 3059,
    "health": 7356,
    "crime": 5587,
    "barriers": 27412,
    "living_env": 25973,
    "idaci": 10286,
    "idaopi": 12591,
    "imd_pct_most_deprived": 25.0,
    "imd_decile": 3,
    "population": 1853,
    "hh_deprived_3plus": 6.6,
    "no_quals": 29.7,
    "level4_quals": 18.5,
    "social_rented": 23.5,
    "private_rented": 22.7,
    "no_car": 24,
    "disabled": 18.3,
    "language_not_english": 22.7,
    "lone_parent": 9.4,
    "claimant_rate": 4.9,
    "claimant_count": 60
   },
   "geometry": {
    "type": "Polygon",
    "coordinates": [
     [
      [
       -0.701375,
       52.482538
      ],
      [
       -0.702636,
       52.481837
      ],
      [
       -0.704,
       52.480677
      ],
      [
       -0.704676,
       52.480147
      ],
      [
       -0.706547,
       52.478979
      ],
      [
       -0.709975,
       52.477676
      ],
      [
       -0.710345,
       52.478435
      ],
      [
       -0.711348,
       52.479371
      ],
      [
       -0.711968,
       52.480847
      ],
      [
       -0.713412,
       52.480667
      ],
      [
       -0.714136,
       52.482459
      ],
      [
       -0.714688,
       52.482444
      ],
      [
       -0.71298,
       52.482888
      ],
      [
       -0.711759,
       52.483127
      ],
      [
       -0.709395,
       52.48351
      ],
      [
       -0.707939,
       52.484111
      ],
      [
       -0.704928,
       52.484078
      ],
      [
       -0.704752,
       52.48407
      ],
      [
       -0.699818,
       52.483837
      ],
      [
       -0.699373,
       52.483611
      ],
      [
       -0.701375,
       52.482538
      ]
     ]
    ]
   }
  },
  {
   "type": "Feature",
   "properties": {
    "layer": "lsoa",
    "code": "E01026968",
    "name": "North Northamptonshire 007G",
    "short": "007G",
    "label": "007G",
    "exeter": false,
    "msoa": "E02005617",
    "area_km2": 0.264,
    "label_lon": -0.713983,
    "label_lat": 52.476803,
    "imd_rank": 1264,
    "la_rank": 1,
    "income": 1840,
    "employment": 1905,
    "education": 100,
    "health": 2133,
    "crime": 941,
    "barriers": 20205,
    "living_env": 22964,
    "idaci": 2184,
    "idaopi": 6075,
    "imd_pct_most_deprived": 3.7,
    "imd_decile": 1,
    "population": 1790,
    "hh_deprived_3plus": 12.3,
    "no_quals": 34.9,
    "level4_quals": 14.9,
    "social_rented": 44.1,
    "private_rented": 26.6,
    "no_car": 40,
    "disabled": 22,
    "language_not_english": 23,
    "lone_parent": 13.4,
    "claimant_rate": 7.0,
    "claimant_count": 80
   },
   "geometry": {
    "type": "Polygon",
    "coordinates": [
     [
      [
       -0.710345,
       52.478435
      ],
      [
       -0.709975,
       52.477676
      ],
      [
       -0.710668,
       52.477393
      ],
      [
       -0.713749,
       52.475571
      ],
      [
       -0.714582,
       52.475032
      ],
      [
       -0.715392,
       52.474515
      ],
      [
       -0.716848,
       52.473632
      ],
      [
       -0.71772,
       52.473013
      ],
      [
       -0.720246,
       52.47225
      ],
      [
       -0.720308,
       52.472553
      ],
      [
       -0.721578,
       52.472232
      ],
      [
       -0.722215,
       52.472884
      ],
      [
       -0.72246,
       52.473276
      ],
      [
       -0.721921,
       52.473973
      ],
      [
       -0.722181,
       52.475166
      ],
      [
       -0.720527,
       52.475337
      ],
      [
       -0.719463,
       52.475843
      ],
      [
       -0.718586,
       52.476534
      ],
      [
       -0.718388,
       52.476041
      ],
      [
       -0.71797,
       52.476106
      ],
      [
       -0.717613,
       52.476285
      ],
      [
       -0.717383,
       52.476103
      ],
      [
       -0.71715,
       52.47648
      ],
      [
       -0.715591,
       52.477071
      ],
      [
       -0.714347,
       52.477623
      ],
      [
       -0.71464,
       52.477898
      ],
      [
       -0.71399,
       52.477846
      ],
      [
       -0.713479,
       52.478286
      ],
      [
       -0.712341,
       52.478607
      ],
      [
       -0.713412,
       52.480667
      ],
      [
       -0.711968,
       52.480847
      ],
      [
       -0.711348,
       52.479371
      ],
      [
       -0.710345,
       52.478435
      ]
     ]
    ]
   }
  },
  {
   "type": "Feature",
   "properties": {
    "layer": "lsoa",
    "code": "E01026950",
    "name": "North Northamptonshire 005B",
    "short": "005B",
    "label": "005B · Exeter (north, incl. Burghley Drive)",
    "exeter": true,
    "msoa": "E02005616",
    "area_km2": 0.346,
    "label_lon": -0.693907,
    "label_lat": 52.484854,
    "imd_rank": 3530,
    "la_rank": 10,
    "income": 4657,
    "employment": 4129,
    "education": 796,
    "health": 3544,
    "crime": 2102,
    "barriers": 28832,
    "living_env": 20046,
    "idaci": 8066,
    "idaopi": 4480,
    "imd_pct_most_deprived": 10.5,
    "imd_decile": 2,
    "population": 1634,
    "households": 641,
    "hh_deprived_3plus": 9.8,
    "no_quals": 33.4,
    "level4_quals": 13.9,
    "social_rented": 31.6,
    "private_rented": 25.8,
    "no_car": 34.0,
    "disabled": 20.9,
    "language_not_english": 25.4,
    "lone_parent": 10.5,
    "claimant_count": 70,
    "claimant_rate": 6.2
   },
   "geometry": {
    "type": "Polygon",
    "coordinates": [
     [
      [
       -0.698609,
       52.488415
      ],
      [
       -0.697811,
       52.487889
      ],
      [
       -0.696446,
       52.488261
      ],
      [
       -0.696292,
       52.487767
      ],
      [
       -0.695174,
       52.487941
      ],
      [
       -0.695013,
       52.487348
      ],
      [
       -0.694774,
       52.486814
      ],
      [
       -0.692032,
       52.487009
      ],
      [
       -0.692707,
       52.485756
      ],
      [
       -0.689156,
       52.486766
      ],
      [
       -0.690734,
       52.482481
      ],
      [
       -0.691466,
       52.480455
      ],
      [
       -0.692624,
       52.480765
      ],
      [
       -0.693397,
       52.480548
      ],
      [
       -0.694344,
       52.481028
      ],
      [
       -0.695472,
       52.480749
      ],
      [
       -0.696567,
       52.481601
      ],
      [
       -0.695594,
       52.481988
      ],
      [
       -0.695758,
       52.482267
      ],
      [
       -0.696289,
       52.482336
      ],
      [
       -0.697587,
       52.484197
      ],
      [
       -0.698417,
       52.484295
      ],
      [
       -0.69801,
       52.484765
      ],
      [
       -0.697897,
       52.484943
      ],
      [
       -0.697023,
       52.485368
      ],
      [
       -0.697092,
       52.485734
      ],
      [
       -0.697918,
       52.485472
      ],
      [
       -0.698653,
       52.485857
      ],
      [
       -0.698135,
       52.486214
      ],
      [
       -0.697662,
       52.486109
      ],
      [
       -0.697643,
       52.486553
      ],
      [
       -0.699264,
       52.487388
      ],
      [
       -0.699353,
       52.489347
      ],
      [
       -0.699161,
       52.48939
      ],
      [
       -0.699258,
       52.489086
      ],
      [
       -0.698482,
       52.489055
      ],
      [
       -0.698609,
       52.488415
      ]
     ]
    ]
   }
  },
  {
   "type": "Feature",
   "properties": {
    "layer": "boundary",
    "code": "PIP-KHLE",
    "name": "Kingswood, Hazel Leys & Exeter",
    "label": "Pride in Place boundary: MSOA E02005617 + Exeter LSOAs E01026951 and E01026950",
    "area_km2": 3.064,
    "lsoa_count": 9,
    "population": 14178,
    "households": 5519,
    "hh_deprived_3plus": 8.3,
    "no_quals": 31.6,
    "level4_quals": 16.3,
    "social_rented": 30.2,
    "private_rented": 24.2,
    "no_car": 31.6,
    "disabled": 19.9,
    "language_not_english": 22.1,
    "lone_parent": 11.1,
    "claimant_count": 595,
    "claimant_rate": 6.2
   },
   "geometry": {
    "type": "Polygon",
    "coordinates": [
     [
      [
       -0.704676,
       52.480147
      ],
      [
       -0.706547,
       52.478979
      ],
      [
       -0.709975,
       52.477676
      ],
      [
       -0.710668,
       52.477393
      ],
      [
       -0.713749,
       52.475571
      ],
      [
       -0.714582,
       52.475032
      ],
      [
       -0.715392,
       52.474515
      ],
      [
       -0.716848,
       52.473632
      ],
      [
       -0.71772,
       52.473013
      ],
      [
       -0.720246,
       52.47225
      ],
      [
       -0.723193,
       52.470645
      ],
      [
       -0.723439,
       52.470771
      ],
      [
       -0.725734,
       52.471922
      ],
      [
       -0.72767,
       52.472876
      ],
      [
       -0.729491,
       52.473706
      ],
      [
       -0.730212,
       52.474018
      ],
      [
       -0.733053,
       52.475201
      ],
      [
       -0.731234,
       52.47908
      ],
      [
       -0.730596,
       52.479823
      ],
      [
       -0.728816,
       52.479931
      ],
      [
       -0.72532,
       52.480609
      ],
      [
       -0.7244,
       52.480842
      ],
      [
       -0.724739,
       52.481499
      ],
      [
       -0.726096,
       52.481622
      ],
      [
       -0.726846,
       52.482357
      ],
      [
       -0.727008,
       52.482863
      ],
      [
       -0.727179,
       52.483381
      ],
      [
       -0.727641,
       52.484863
      ],
      [
       -0.725974,
       52.485043
      ],
      [
       -0.726183,
       52.486197
      ],
      [
       -0.725374,
       52.486439
      ],
      [
       -0.72361,
       52.486389
      ],
      [
       -0.722768,
       52.486758
      ],
      [
       -0.722218,
       52.486567
      ],
      [
       -0.720992,
       52.486942
      ],
      [
       -0.72051,
       52.486321
      ],
      [
       -0.719584,
       52.486924
      ],
      [
       -0.719036,
       52.486572
      ],
      [
       -0.718341,
       52.486883
      ],
      [
       -0.717918,
       52.486698
      ],
      [
       -0.718297,
       52.485906
      ],
      [
       -0.71906,
       52.485933
      ],
      [
       -0.719295,
       52.48563
      ],
      [
       -0.718846,
       52.485477
      ],
      [
       -0.717916,
       52.485445
      ],
      [
       -0.717666,
       52.48503
      ],
      [
       -0.717175,
       52.485825
      ],
      [
       -0.716629,
       52.486001
      ],
      [
       -0.716677,
       52.487595
      ],
      [
       -0.716613,
       52.48938
      ],
      [
       -0.713821,
       52.488564
      ],
      [
       -0.704939,
       52.486465
      ],
      [
       -0.697897,
       52.484943
      ],
      [
       -0.697023,
       52.485368
      ],
      [
       -0.697092,
       52.485734
      ],
      [
       -0.697918,
       52.485472
      ],
      [
       -0.698653,
       52.485857
      ],
      [
       -0.698135,
       52.486214
      ],
      [
       -0.697662,
       52.486109
      ],
      [
       -0.697643,
       52.486553
      ],
      [
       -0.699264,
       52.487388
      ],
      [
       -0.699353,
       52.489347
      ],
      [
       -0.699161,
       52.48939
      ],
      [
       -0.699258,
       52.489086
      ],
      [
       -0.698482,
       52.489055
      ],
      [
       -0.698609,
       52.488415
      ],
      [
       -0.697811,
       52.487889
      ],
      [
       -0.696446,
       52.488261
      ],
      [
       -0.696292,
       52.487767
      ],
      [
       -0.695174,
       52.487941
      ],
      [
       -0.695013,
       52.487348
      ],
      [
       -0.694774,
       52.486814
      ],
      [
       -0.692032,
       52.487009
      ],
      [
       -0.692707,
       52.485756
      ],
      [
       -0.689156,
       52.486766
      ],
      [
       -0.690734,
       52.482481
      ],
      [
       -0.691466,
       52.480455
      ],
      [
       -0.691968,
       52.479063
      ],
      [
       -0.69408,
       52.478908
      ],
      [
       -0.698408,
       52.479243
      ],
      [
       -0.699267,
       52.479378
      ],
      [
       -0.704,
       52.480677
      ],
      [
       -0.704676,
       52.480147
      ]
     ]
    ]
   }
  },
  {
   "type": "Feature",
   "properties": {
    "layer": "msoa",
    "code": "E02005617",
    "name": "North Northamptonshire 007",
    "label": "Published MSOA E02005617 (Kingswood and Hazel Leys, without Exeter)",
    "area_km2": 2.468,
    "population": 11189,
    "households": 4363
   },
   "geometry": {
    "type": "Polygon",
    "coordinates": [
     [
      [
       -0.697897,
       52.484943
      ],
      [
       -0.69801,
       52.484765
      ],
      [
       -0.698417,
       52.484295
      ],
      [
       -0.698582,
       52.48415
      ],
      [
       -0.699373,
       52.483611
      ],
      [
       -0.701375,
       52.482538
      ],
      [
       -0.702636,
       52.481837
      ],
      [
       -0.704,
       52.480677
      ],
      [
       -0.704676,
       52.480147
      ],
      [
       -0.706547,
       52.478979
      ],
      [
       -0.709975,
       52.477676
      ],
      [
       -0.710668,
       52.477393
      ],
      [
       -0.713749,
       52.475571
      ],
      [
       -0.714582,
       52.475032
      ],
      [
       -0.715392,
       52.474515
      ],
      [
       -0.716848,
       52.473632
      ],
      [
       -0.71772,
       52.473013
      ],
      [
       -0.720246,
       52.47225
      ],
      [
       -0.723193,
       52.470645
      ],
      [
       -0.723439,
       52.470771
      ],
      [
       -0.725734,
       52.471922
      ],
      [
       -0.72767,
       52.472876
      ],
      [
       -0.729491,
       52.473706
      ],
      [
       -0.730212,
       52.474018
      ],
      [
       -0.733053,
       52.475201
      ],
      [
       -0.731234,
       52.47908
      ],
      [
       -0.730596,
       52.479823
      ],
      [
       -0.728816,
       52.479931
      ],
      [
       -0.72532,
       52.480609
      ],
      [
       -0.7244,
       52.480842
      ],
      [
       -0.724739,
       52.481499
      ],
      [
       -0.726096,
       52.481622
      ],
      [
       -0.726846,
       52.482357
      ],
      [
       -0.727008,
       52.482863
      ],
      [
       -0.727179,
       52.483381
      ],
      [
       -0.727641,
       52.484863
      ],
      [
       -0.725974,
       52.485043
      ],
      [
       -0.726183,
       52.486197
      ],
      [
       -0.725374,
       52.486439
      ],
      [
       -0.72361,
       52.486389
      ],
      [
       -0.722768,
       52.486758
      ],
      [
       -0.722218,
       52.486567
      ],
      [
       -0.720992,
       52.486942
      ],
      [
       -0.72051,
       52.486321
      ],
      [
       -0.719584,
       52.486924
      ],
      [
       -0.719036,
       52.486572
      ],
      [
       -0.718341,
       52.486883
      ],
      [
       -0.717918,
       52.486698
      ],
      [
       -0.718297,
       52.485906
      ],
      [
       -0.71906,
       52.485933
      ],
      [
       -0.719295,
       52.48563
      ],
      [
       -0.718846,
       52.485477
      ],
      [
       -0.717916,
       52.485445
      ],
      [
       -0.717666,
       52.48503
      ],
      [
       -0.717175,
       52.485825
      ],
      [
       -0.716629,
       52.486001
      ],
      [
       -0.716677,
       52.487595
      ],
      [
       -0.716613,
       52.48938
      ],
      [
       -0.713821,
       52.488564
      ],
      [
       -0.704939,
       52.486465
      ],
      [
       -0.697897,
       52.484943
      ]
     ]
    ]
   }
  },
  {
   "type": "Feature",
   "properties": {
    "layer": "school",
    "name": "Kingswood Secondary Academy",
    "urn": "139957",
    "address": "Gainsborough Rd, NN18 9BY",
    "pupils": 1226,
    "fsm6": 32.97,
    "fsm6_england": 28.9,
    "eal": 23.3,
    "sen_support": 11.91,
    "ehcp": 2.77,
    "absence": 9.3,
    "persistent_absence": 27.22,
    "persistent_absence_england": 23.37,
    "attainment": "Attainment 8: 42.9 (England 46.1); Grade 5+ English & maths: 34.3% (England 45.4%)"
   },
   "geometry": {
    "type": "Point",
    "coordinates": [
     -0.73336,
     52.479351
    ]
   }
  },
  {
   "type": "Feature",
   "properties": {
    "layer": "school",
    "name": "Kingswood Primary Academy",
    "urn": "139325",
    "address": "Southbrook, NN18 9BE",
    "pupils": 211,
    "fsm6": 46.45,
    "fsm6_england": 26.3,
    "eal": 25.1,
    "sen_support": 14.22,
    "ehcp": 6.64,
    "absence": 5.29,
    "persistent_absence": 13.04,
    "persistent_absence_england": 12.99,
    "attainment": "KS2 RWM expected standard: 54% (England 62%)"
   },
   "geometry": {
    "type": "Point",
    "coordinates": [
     -0.719249,
     52.477851
    ]
   }
  },
  {
   "type": "Feature",
   "properties": {
    "layer": "school",
    "name": "Hazel Leys Academy",
    "urn": "141982",
    "address": "Gainsborough Rd, NN18 0QF",
    "pupils": 227,
    "fsm6": 30.88,
    "fsm6_england": 26.3,
    "eal": 45.4,
    "sen_support": 14.98,
    "ehcp": 3.08,
    "absence": 6.27,
    "persistent_absence": 17.02,
    "persistent_absence_england": 12.99,
    "attainment": "KS2 RWM expected standard: 64% (England 62%)"
   },
   "geometry": {
    "type": "Point",
    "coordinates": [
     -0.71257,
     52.481857
    ]
   }
  },
  {
   "type": "Feature",
   "properties": {
    "layer": "school",
    "name": "Exeter A Learning Community Academy",
    "urn": "146827",
    "address": "Brayford Avenue, NN18 8DL (street location)",
    "pupils": 479,
    "fsm6": 45.54,
    "fsm6_england": 26.3,
    "eal": 38.8,
    "sen_support": 18.58,
    "ehcp": 6.68,
    "absence": 6.92,
    "persistent_absence": 21.3,
    "persistent_absence_england": 12.99,
    "attainment": "KS2 RWM expected standard: 35% (England 62%)"
   },
   "geometry": {
    "type": "Point",
    "coordinates": [
     -0.695608,
     52.483733
    ]
   }
  }
 ]
}